start=new Date('2022-01-22T00:00:00.000Z').valueOf();
sats=[{"DECAY_DATE":null,"INCLINATION":"53.2171","CENTER_NAME":"EARTH","OBJECT_TYPE":"PAYLOAD","FILE":"3279324","LAUNCH_DATE":"2021-11-13","TIME_SYSTEM":"UTC","RA_OF_ASC_NODE":"159.4375","TLE_LINE1":"1 49408U 21104A   22021.58334491 -.00482018  00000-0 -26266-1 0  9995","MEAN_MOTION_DDOT":"0.0000000000000","ECCENTRICITY":"0.00015860","MEAN_MOTION_DOT":"-0.00482018","OBJECT_NAME":"STARLINK-3151","EPOCH":"2022-01-21T14:00:01.000224","SITE":"AFETR","MEAN_ANOMALY":"25.3162","COUNTRY_CODE":"US","NORAD_CAT_ID":"49408","MEAN_ELEMENT_THEORY":"SGP4","ARG_OF_PERICENTER":"38.9043","REV_AT_EPOCH":"360","SEMIMAJOR_AXIS":"6895.231","OBJECT_ID":"2021-104A","MEAN_MOTION":"15.16280479","BSTAR":"-0.02626600000000","APOAPSIS":"518.189","REF_FRAME":"TEME","TLE_LINE2":"2 49408  53.2171 159.4375 0001586  38.9043  25.3162 15.16280479  3608","ELEMENT_SET_NO":"999","PERIOD":"94.969","RCS_SIZE":"LARGE","PERIAPSIS":"516.002","GP_ID":"194330194","CLASSIFICATION_TYPE":"U","EPHEMERIS_TYPE":"0"},{"MEAN_MOTION_DOT":"-0.00663358","EPOCH":"2022-01-21T14:00:01.000224","OBJECT_NAME":"STARLINK-3075","MEAN_MOTION_DDOT":"0.0000000000000","ECCENTRICITY":"0.00017160","RA_OF_ASC_NODE":"159.4395","TLE_LINE1":"1 49409U 21104B   22021.58334491 -.00663358  00000-0 -34262-1 0  9999","DECAY_DATE":null,"INCLINATION":"53.2174","TIME_SYSTEM":"UTC","CENTER_NAME":"EARTH","OBJECT_TYPE":"PAYLOAD","LAUNCH_DATE":"2021-11-13","FILE":"3279324","GP_ID":"194330948","CLASSIFICATION_TYPE":"U","EPHEMERIS_TYPE":"0","REF_FRAME":"TEME","APOAPSIS":"512.687","TLE_LINE2":"2 49409  53.2174 159.4395 0001716  44.2440 262.6343 15.18126699  3646","MEAN_MOTION":"15.18126699","BSTAR":"-0.03426200000000","RCS_SIZE":"LARGE","PERIAPSIS":"510.322","ELEMENT_SET_NO":"999","PERIOD":"94.854","SEMIMAJOR_AXIS":"6889.639","OBJECT_ID":"2021-104B","MEAN_ELEMENT_THEORY":"SGP4","COUNTRY_CODE":"US","ARG_OF_PERICENTER":"44.2440","NORAD_CAT_ID":"49409","MEAN_ANOMALY":"262.6343","SITE":"AFETR","REV_AT_EPOCH":"364"},{"ECCENTRICITY":"0.00015750","MEAN_MOTION_DDOT":"0.0000000000000","TLE_LINE1":"1 49410U 21104C   22021.58334491 -.00525839  00000-0 -28676-1 0  9994","RA_OF_ASC_NODE":"159.4370","DECAY_DATE":null,"INCLINATION":"53.2175","TIME_SYSTEM":"UTC","FILE":"3279324","LAUNCH_DATE":"2021-11-13","CENTER_NAME":"EARTH","OBJECT_TYPE":"PAYLOAD","MEAN_MOTION_DOT":"-0.00525839","OBJECT_NAME":"STARLINK-3147","EPOCH":"2022-01-21T14:00:01.000224","SEMIMAJOR_AXIS":"6895.826","OBJECT_ID":"2021-104C","COUNTRY_CODE":"US","MEAN_ELEMENT_THEORY":"SGP4","NORAD_CAT_ID":"49410","ARG_OF_PERICENTER":"37.5309","SITE":"AFETR","MEAN_ANOMALY":"350.9830","REV_AT_EPOCH":"360","EPHEMERIS_TYPE":"0","GP_ID":"194331698","CLASSIFICATION_TYPE":"U","TLE_LINE2":"2 49410  53.2175 159.4370 0001575  37.5309 350.9830 15.16084285  3604","APOAPSIS":"518.777","REF_FRAME":"TEME","BSTAR":"-0.02867600000000","MEAN_MOTION":"15.16084285","PERIAPSIS":"516.605","RCS_SIZE":"LARGE","PERIOD":"94.982","ELEMENT_SET_NO":"999"},{"MEAN_ANOMALY":"21.0885","SITE":"AFETR","COUNTRY_CODE":"US","ARG_OF_PERICENTER":"29.3211","MEAN_ELEMENT_THEORY":"SGP4","NORAD_CAT_ID":"49411","REV_AT_EPOCH":"365","OBJECT_ID":"2021-104D","SEMIMAJOR_AXIS":"6803.703","MEAN_MOTION":"15.46980088","BSTAR":"-0.01098800000000","REF_FRAME":"TEME","APOAPSIS":"426.547","TLE_LINE2":"2 49411  53.2171 153.1025 0001439  29.3211  21.0885 15.46980088  3659","ELEMENT_SET_NO":"999","PERIOD":"93.085","PERIAPSIS":"424.589","RCS_SIZE":"LARGE","CLASSIFICATION_TYPE":"U","GP_ID":"194329949","EPHEMERIS_TYPE":"0","DECAY_DATE":null,"INCLINATION":"53.2171","CENTER_NAME":"EARTH","OBJECT_TYPE":"PAYLOAD","FILE":"3279324","LAUNCH_DATE":"2021-11-13","TIME_SYSTEM":"UTC","TLE_LINE1":"1 49411U 21104D   22021.58334491 -.00527194  00000-0 -10988-1 0  9998","RA_OF_ASC_NODE":"153.1025","MEAN_MOTION_DDOT":"0.0000000000000","ECCENTRICITY":"0.00014390","MEAN_MOTION_DOT":"-0.00527194","OBJECT_NAME":"STARLINK-3162","EPOCH":"2022-01-21T14:00:01.000224"},{"SEMIMAJOR_AXIS":"6890.358","OBJECT_ID":"2021-104E","MEAN_ELEMENT_THEORY":"SGP4","COUNTRY_CODE":"US","ARG_OF_PERICENTER":"63.7265","NORAD_CAT_ID":"49412","MEAN_ANOMALY":"187.3934","SITE":"AFETR","REV_AT_EPOCH":"1209","CLASSIFICATION_TYPE":"U","GP_ID":"194333240","EPHEMERIS_TYPE":"0","APOAPSIS":"513.234","REF_FRAME":"TEME","TLE_LINE2":"2 49412  53.2173 158.3030 0001468  63.7265 187.3934 15.17889257 12091","MEAN_MOTION":"15.17889257","BSTAR":"-0.03423700000000","PERIAPSIS":"511.211","RCS_SIZE":"LARGE","ELEMENT_SET_NO":"999","PERIOD":"94.869","MEAN_MOTION_DDOT":"0.0000000000000","ECCENTRICITY":"0.00014680","TLE_LINE1":"1 49412U 21104E   22021.83334491 -.00658621  00000-0 -34237-1 0  9990","RA_OF_ASC_NODE":"158.3030","DECAY_DATE":null,"INCLINATION":"53.2173","TIME_SYSTEM":"UTC","CENTER_NAME":"EARTH","OBJECT_TYPE":"PAYLOAD","LAUNCH_DATE":"2021-11-13","FILE":"3279372","MEAN_MOTION_DOT":"-0.00658621","OBJECT_NAME":"STARLINK-3144","EPOCH":"2022-01-21T20:00:01.000224"},{"ECCENTRICITY":"0.00014080","MEAN_MOTION_DDOT":"0.0000000000000","RA_OF_ASC_NODE":"153.1026","TLE_LINE1":"1 49413U 21104F   22021.58334491 -.00525542  00000-0 -10908-1 0  9997","TIME_SYSTEM":"UTC","FILE":"3279324","LAUNCH_DATE":"2021-11-13","CENTER_NAME":"EARTH","OBJECT_TYPE":"PAYLOAD","DECAY_DATE":null,"INCLINATION":"53.2172","OBJECT_NAME":"STARLINK-3157","EPOCH":"2022-01-21T14:00:01.000224","MEAN_MOTION_DOT":"-0.00525542","OBJECT_ID":"2021-104F","SEMIMAJOR_AXIS":"6803.369","REV_AT_EPOCH":"365","COUNTRY_CODE":"US","ARG_OF_PERICENTER":"25.0425","NORAD_CAT_ID":"49413","MEAN_ELEMENT_THEORY":"SGP4","MEAN_ANOMALY":"34.0263","SITE":"AFETR","EPHEMERIS_TYPE":"0","CLASSIFICATION_TYPE":"U","GP_ID":"194331448","PERIAPSIS":"424.277","RCS_SIZE":"LARGE","PERIOD":"93.078","ELEMENT_SET_NO":"999","TLE_LINE2":"2 49413  53.2172 153.1026 0001408  25.0425  34.0263 15.47093901  3653","APOAPSIS":"426.192","REF_FRAME":"TEME","BSTAR":"-0.01090800000000","MEAN_MOTION":"15.47093901"},{"MEAN_MOTION_DOT":"-0.00660737","EPOCH":"2022-01-21T20:00:01.000224","OBJECT_NAME":"STARLINK-3146","DECAY_DATE":null,"INCLINATION":"53.2173","TIME_SYSTEM":"UTC","CENTER_NAME":"EARTH","OBJECT_TYPE":"PAYLOAD","LAUNCH_DATE":"2021-11-13","FILE":"3279407","MEAN_MOTION_DDOT":"0.0000000000000","ECCENTRICITY":"0.00016180","TLE_LINE1":"1 49414U 21104G   22021.83334491 -.00660737  00000-0 -36327-1 0  9995","RA_OF_ASC_NODE":"158.3001","REF_FRAME":"TEME","APOAPSIS":"519.224","TLE_LINE2":"2 49414  53.2173 158.3001 0001618  44.3371 287.1905 15.15946612 12084","MEAN_MOTION":"15.15946612","BSTAR":"-0.03632700000000","RCS_SIZE":"LARGE","PERIAPSIS":"516.992","ELEMENT_SET_NO":"999","PERIOD":"94.990","CLASSIFICATION_TYPE":"U","GP_ID":"194334575","EPHEMERIS_TYPE":"0","COUNTRY_CODE":"US","MEAN_ELEMENT_THEORY":"SGP4","ARG_OF_PERICENTER":"44.3371","NORAD_CAT_ID":"49414","MEAN_ANOMALY":"287.1905","SITE":"AFETR","REV_AT_EPOCH":"1208","SEMIMAJOR_AXIS":"6896.243","OBJECT_ID":"2021-104G"},{"ECCENTRICITY":"0.00014510","MEAN_MOTION_DDOT":"0.0000000000000","RA_OF_ASC_NODE":"153.1007","TLE_LINE1":"1 49415U 21104H   22021.58334491 -.00534795  00000-0 -11066-1 0  9995","TIME_SYSTEM":"UTC","FILE":"3279324","LAUNCH_DATE":"2021-11-13","OBJECT_TYPE":"PAYLOAD","CENTER_NAME":"EARTH","DECAY_DATE":null,"INCLINATION":"53.2171","OBJECT_NAME":"STARLINK-3159","EPOCH":"2022-01-21T14:00:01.000224","MEAN_MOTION_DOT":"-0.00534795","SEMIMAJOR_AXIS":"6803.012","OBJECT_ID":"2021-104H","REV_AT_EPOCH":"365","COUNTRY_CODE":"US","ARG_OF_PERICENTER":"28.9017","NORAD_CAT_ID":"49415","MEAN_ELEMENT_THEORY":"SGP4","SITE":"AFETR","MEAN_ANOMALY":"38.7877","EPHEMERIS_TYPE":"0","GP_ID":"194330449","CLASSIFICATION_TYPE":"U","PERIAPSIS":"423.889","RCS_SIZE":"LARGE","PERIOD":"93.070","ELEMENT_SET_NO":"999","TLE_LINE2":"2 49415  53.2171 153.1007 0001451  28.9017  38.7877 15.47216011  3651","REF_FRAME":"TEME","APOAPSIS":"425.864","BSTAR":"-0.01106600000000","MEAN_MOTION":"15.47216011"},{"MEAN_MOTION_DOT":"-0.00547945","OBJECT_NAME":"STARLINK-3133","EPOCH":"2022-01-21T14:00:01.000224","MEAN_MOTION_DDOT":"0.0000000000000","ECCENTRICITY":"0.00016450","RA_OF_ASC_NODE":"159.4380","TLE_LINE1":"1 49416U 21104J   22021.58334491 -.00547945  00000-0 -29654-1 0  9999","DECAY_DATE":null,"INCLINATION":"53.2169","TIME_SYSTEM":"UTC","CENTER_NAME":"EARTH","OBJECT_TYPE":"PAYLOAD","FILE":"3279324","LAUNCH_DATE":"2021-11-13","CLASSIFICATION_TYPE":"U","GP_ID":"194330195","EPHEMERIS_TYPE":"0","APOAPSIS":"517.742","REF_FRAME":"TEME","TLE_LINE2":"2 49416  53.2169 159.4380 0001645  39.9189  42.0175 15.16441511  3604","MEAN_MOTION":"15.16441511","BSTAR":"-0.02965400000000","RCS_SIZE":"LARGE","PERIAPSIS":"515.474","ELEMENT_SET_NO":"999","PERIOD":"94.959","SEMIMAJOR_AXIS":"6894.743","OBJECT_ID":"2021-104J","COUNTRY_CODE":"US","ARG_OF_PERICENTER":"39.9189","MEAN_ELEMENT_THEORY":"SGP4","NORAD_CAT_ID":"49416","SITE":"AFETR","MEAN_ANOMALY":"42.0175","REV_AT_EPOCH":"360"},{"GP_ID":"194337264","CLASSIFICATION_TYPE":"U","EPHEMERIS_TYPE":"0","MEAN_MOTION":"15.47706325","BSTAR":"-0.00536830000000","REF_FRAME":"TEME","APOAPSIS":"426.411","TLE_LINE2":"2 49417  53.2151 152.2539 0004368 119.5523 240.5922 15.47706325 12162","ELEMENT_SET_NO":"999","PERIOD":"93.041","RCS_SIZE":"LARGE","PERIAPSIS":"420.469","OBJECT_ID":"2021-104K","SEMIMAJOR_AXIS":"6801.575","MEAN_ANOMALY":"240.5922","SITE":"AFETR","COUNTRY_CODE":"US","ARG_OF_PERICENTER":"119.5523","MEAN_ELEMENT_THEORY":"SGP4","NORAD_CAT_ID":"49417","REV_AT_EPOCH":"1216","MEAN_MOTION_DOT":"-0.00273194","OBJECT_NAME":"STARLINK-3154","EPOCH":"2022-01-21T18:19:25.172256","RA_OF_ASC_NODE":"152.2539","TLE_LINE1":"1 49417U 21104K   22021.76348579 -.00273194  00000-0 -53683-2 0  9994","MEAN_MOTION_DDOT":"0.0000000000000","ECCENTRICITY":"0.00043680","INCLINATION":"53.2151","DECAY_DATE":null,"CENTER_NAME":"EARTH","OBJECT_TYPE":"PAYLOAD","LAUNCH_DATE":"2021-11-13","FILE":"3279550","TIME_SYSTEM":"UTC"}];
